STARLINK-37096          
1 68239U 26054H   26200.78196121  .00005813  00000+0  18307-3 0  9998
2 68239  53.1601  34.8866 0001198 100.6582 259.4556 15.34397054 19335
STARLINK-37092          
1 68240U 26054J   26201.25004630 -.00018302  00000+0 -53179-3 0  9991
2 68240  53.1601  32.9262 0000706 338.2096   7.5062 15.34403900  5921
STARLINK-37094          
1 68241U 26054K   26200.82768182  .00010068  00000+0  30871-3 0  9996
2 68241  53.1611  42.3715 0001026  90.7446 269.3674 15.34401032 19236
STARLINK-36356          
1 68242U 26054L   26201.27109690  .00011468  00000+0  35017-3 0  9992
2 68242  53.1606  40.8780 0000316  64.1844 295.9192 15.34385404 19294
STARLINK-36345          
1 68243U 26054M   26200.83657532  .00010766  00000+0  32931-3 0  9999
2 68243  53.1592  34.5062 0001060 102.8090 257.3032 15.34400723 19345
STARLINK-36310          
1 68244U 26054N   26201.25004630 -.00014484  00000+0 -41836-3 0  9999
2 68244  53.1598  32.7983 0001143  96.4496 307.4234 15.34399103  5822
STARLINK-36247          
1 68245U 26054P   26201.26737681  .00014611  00000+0  44265-3 0  9999
2 68245  53.1600  32.9955 0001184  81.1896 278.9240 15.34405756 19408
STARLINK-37043          
1 68246U 26054Q   26201.24633534  .00005389  00000+0  17043-3 0  9996
2 68246  53.1602  32.8665 0001046  90.7867 269.3255 15.34417449 19401
STARLINK-37044          
1 68247U 26054R   26200.76723783  .00011087  00000+0  33877-3 0  9994
2 68247  53.1590  34.8498 0000960  83.2523 276.8589 15.34400057 19336
STARLINK-36997          
1 68248U 26054S   26200.83399352  .00007367  00000+0  22899-3 0  9992
2 68248  53.1593  42.4119 0001152  74.8257 285.2873 15.34395554 19233
STARLINK-37141          
1 68249U 26054T   26200.95631681  .00014534  00000+0  44097-3 0  9998
2 68249  53.1600  33.9000 0001469  85.5647 274.5523 15.34362522 19366
STARLINK-37087          
1 68250U 26054U   26200.92254982  .00009564  00000+0  30166-3 0  9991
2 68250  53.1608  34.4055 0001135  96.9687 263.1444 15.33559656 19352
STARLINK-36274          
1 68251U 26054V   26201.26478465  .00011232  00000+0  34309-3 0  9992
2 68251  53.1608  40.8197 0001628  73.2253 286.8928 15.34398175 19295
STARLINK-37085          
1 68252U 26054W   26201.25896247  .00010759  00000+0  32917-3 0  9990
2 68252  53.1607  32.9316 0001548 103.9795 256.1380 15.34393989 19406
STARLINK-37086          
1 68253U 26054X   26200.92906876  .00007674  00000+0  23799-3 0  9994
2 68253  53.1607  34.4382 0000929 100.5838 259.5269 15.34402265 19355
STARLINK-37084          
1 68254U 26054Y   26200.80930495  .00023793  00000+0  71217-3 0  9994
2 68254  53.1594  35.1090 0001028 100.8765 259.2354 15.34440973 19336
STARLINK-37075          
1 68255U 26054Z   26201.25004630 -.00017082  00000+0 -49552-3 0  9991
2 68255  53.1601  32.8664 0000696 132.0085 236.9496 15.34404863  5881
STARLINK-36333          
1 68256U 26054AA  26200.86765677  .00005409  00000+0  17113-3 0  9999
2 68256  53.1615  42.6033 0001296  92.7535 267.3616 15.34397797 19238
STARLINK-36745          
1 68257U 26054AB  26201.26105553  .00007964  00000+0  24654-3 0  9992
2 68257  53.1605  32.8887 0001045  94.3070 265.8052 15.34403768 19402
STARLINK-36890          
1 68258U 26054AC  26201.25004630 -.00025155  00000+0 -75532-3 0  9991
2 68258  53.1605  41.0100 0001411  66.4144 145.7379 15.33579694  5877
STARLINK-36323          
1 68259U 26054AD  26201.24423037  .00008793  00000+0  27111-3 0  9994
2 68259  53.1595  32.8510 0001107  70.3998 289.7124 15.34395348 19394
STARLINK-37056          
1 68260U 26054AE  26200.95422629  .00011098  00000+0  33899-3 0  9991
2 68260  53.1597  33.8750 0001089  81.7811 278.3316 15.34409765 19367
TEN-KOH 2               
1 68261U 25241B   26201.12941802  .00002734  00000+0  12435-3 0  9998
2 68261  51.6565 162.8113 0004647 247.3186 112.7301 15.24199842 19939
STARLINK-37162          
1 68262U 26055A   26200.99544260  .00010222  00000+0  31320-3 0  9999
2 68262  53.1580  62.1582 0001268  83.5227 276.5920 15.34406174 20228
STARLINK-37156          
1 68263U 26055B   26201.00224276  .00003879  00000+0  12591-3 0  9994
2 68263  53.1587  63.6285 0001362  95.6043 264.5115 15.34393726 20206
STARLINK-37163          
1 68264U 26055C   26200.91347737  .00013541  00000+0  41104-3 0  9991
2 68264  53.1579  62.3602 0001145  92.4352 267.6782 15.34409886 20214
STARLINK-37133          
1 68265U 26055D   26200.87829944  .00013161  00000+0  39999-3 0  9999
2 68265  53.1596  64.2722 0001361  96.2284 263.8873 15.34397385 20189
STARLINK-37042          
1 68266U 26055E   26200.93872237  .00007075  00000+0  22032-3 0  9997
2 68266  53.1597  62.5187 0001351  72.4002 287.7148 15.34401920 20215
STARLINK-37103          
1 68267U 26055F   26200.87980825  .00013504  00000+0  40997-3 0  9998
2 68267  53.1588  62.1500 0001200  80.3607 279.7532 15.34408774 20215
STARLINK-36999          
1 68268U 26055G   26201.01428890  .00012963  00000+0  39415-3 0  9996
2 68268  53.1589  61.5364 0001314  82.4339 277.6813 15.34396812 20239
