OBJECT_NAME,OBJECT_ID,EPOCH,MEAN_MOTION,ECCENTRICITY,INCLINATION,RA_OF_ASC_NODE,ARG_OF_PERICENTER,MEAN_ANOMALY,EPHEMERIS_TYPE,CLASSIFICATION_TYPE,NORAD_CAT_ID,ELEMENT_SET_NO,REV_AT_EPOCH,BSTAR,MEAN_MOTION_DOT,MEAN_MOTION_DDOT
STARLINK-37096,2026-054H,2026-07-19T18:46:01.448544,15.34397054,.00011986,53.1601,34.8866,100.6582,259.4556,0,U,68239,999,1933,.18307409E-3,.5813E-4,0
STARLINK-37092,2026-054J,2026-07-20T06:00:04.000320,15.34403900,.00007061,53.1601,32.9262,338.2096,7.5062,0,U,68240,999,592,-.53179417E-3,-.18302E-3,0
STARLINK-37094,2026-054K,2026-07-19T19:51:51.709248,15.34401032,.00010265,53.1611,42.3715,90.7446,269.3674,0,U,68241,999,1923,.30870681E-3,.10068E-3,0
STARLINK-36356,2026-054L,2026-07-20T06:30:22.772160,15.34385404,.00003167,53.1606,40.8780,64.1844,295.9192,0,U,68242,999,1929,.35016649E-3,.11468E-3,0
STARLINK-36345,2026-054M,2026-07-19T20:04:40.107648,15.34400723,.00010604,53.1592,34.5062,102.8090,257.3032,0,U,68243,999,1934,.32930806E-3,.10766E-3,0
STARLINK-36310,2026-054N,2026-07-20T06:00:04.000320,15.34399103,.00011433,53.1598,32.7983,96.4496,307.4234,0,U,68244,999,582,-.4183623E-3,-.14484E-3,0
STARLINK-36247,2026-054P,2026-07-20T06:25:01.356384,15.34405756,.00011843,53.1600,32.9955,81.1896,278.9240,0,U,68245,999,1940,.44265018E-3,.14611E-3,0
STARLINK-37043,2026-054Q,2026-07-20T05:54:43.373376,15.34417449,.00010466,53.1602,32.8665,90.7867,269.3255,0,U,68246,999,1940,.17042627E-3,.5389E-4,0
STARLINK-37044,2026-054R,2026-07-19T18:24:49.348512,15.34400057,.00009601,53.1590,34.8498,83.2523,276.8589,0,U,68247,999,1933,.3387679E-3,.11087E-3,0
STARLINK-36997,2026-054S,2026-07-19T20:00:57.040128,15.34395554,.00011528,53.1593,42.4119,74.8257,285.2873,0,U,68248,999,1923,.22898671E-3,.7367E-4,0
STARLINK-37141,2026-054T,2026-07-19T22:57:05.772384,15.34362522,.00014698,53.1600,33.9000,85.5647,274.5523,0,U,68249,999,1936,.44097454E-3,.14534E-3,0
STARLINK-37087,2026-054U,2026-07-19T22:08:28.304448,15.33559656,.00011351,53.1608,34.4055,96.9687,263.1444,0,U,68250,999,1935,.30166202E-3,.9564E-4,0
STARLINK-36274,2026-054V,2026-07-20T06:21:17.393760,15.34398175,.00016282,53.1608,40.8197,73.2253,286.8928,0,U,68251,999,1929,.34309063E-3,.11232E-3,0
STARLINK-37085,2026-054W,2026-07-20T06:12:54.357408,15.34393989,.00015482,53.1607,32.9316,103.9795,256.1380,0,U,68252,999,1940,.32917066E-3,.10759E-3,0
STARLINK-37086,2026-054X,2026-07-19T22:17:51.540864,15.34402265,.00009297,53.1607,34.4382,100.5838,259.5269,0,U,68253,999,1935,.23799483E-3,.7674E-4,0
STARLINK-37084,2026-054Y,2026-07-19T19:25:23.947680,15.34440973,.00010288,53.1594,35.1090,100.8765,259.2354,0,U,68254,999,1933,.71217246E-3,.23793E-3,0
STARLINK-37075,2026-054Z,2026-07-20T06:00:04.000320,15.34404863,.00006963,53.1601,32.8664,132.0085,236.9496,0,U,68255,999,588,-.49552473E-3,-.17082E-3,0
STARLINK-36333,2026-054AA,2026-07-19T20:49:25.544928,15.34397797,.00012962,53.1615,42.6033,92.7535,267.3616,0,U,68256,999,1923,.17113129E-3,.5409E-4,0
STARLINK-36745,2026-054AB,2026-07-20T06:15:55.197792,15.34403768,.00010459,53.1605,32.8887,94.3070,265.8052,0,U,68257,999,1940,.24654183E-3,.7964E-4,0
STARLINK-36890,2026-054AC,2026-07-20T06:00:04.000320,15.33579694,.00014115,53.1605,41.0100,66.4144,145.7379,0,U,68258,999,587,-.75532021E-3,-.25155E-3,0
STARLINK-36323,2026-054AD,2026-07-20T05:51:41.503968,15.34395348,.0001107,53.1595,32.8510,70.3998,289.7124,0,U,68259,999,1939,.27110695E-3,.8793E-4,0
STARLINK-37056,2026-054AE,2026-07-19T22:54:05.151456,15.34409765,.00010899,53.1597,33.8750,81.7811,278.3316,0,U,68260,999,1936,.33899378E-3,.11098E-3,0
TEN-KOH 2,2025-241B,2026-07-20T03:06:21.716928,15.24199842,.00046477,51.6565,162.8113,247.3186,112.7301,0,U,68261,999,1993,.12434863E-3,.2734E-4,0
STARLINK-37162,2026-055A,2026-07-19T23:53:26.240640,15.34406174,.00012687,53.1580,62.1582,83.5227,276.5920,0,U,68262,999,2022,.31320462E-3,.10222E-3,0
STARLINK-37156,2026-055B,2026-07-20T00:03:13.774464,15.34393726,.00013628,53.1587,63.6285,95.6043,264.5115,0,U,68263,999,2020,.12591209E-3,.3879E-4,0
STARLINK-37163,2026-055C,2026-07-19T21:55:24.444768,15.34409886,.00011453,53.1579,62.3602,92.4352,267.6782,0,U,68264,999,2021,.41104107E-3,.13541E-3,0
STARLINK-37133,2026-055D,2026-07-19T21:04:45.071616,15.34397385,.00013615,53.1596,64.2722,96.2284,263.8873,0,U,68265,999,2018,.39998997E-3,.13161E-3,0
STARLINK-37042,2026-055E,2026-07-19T22:31:45.612768,15.34401920,.00013515,53.1597,62.5187,72.4002,287.7148,0,U,68266,999,2021,.22031618E-3,.7075E-4,0
STARLINK-37103,2026-055F,2026-07-19T21:06:55.432800,15.34408774,.00012004,53.1588,62.1500,80.3607,279.7532,0,U,68267,999,2021,.40997373E-3,.13504E-3,0
STARLINK-36999,2026-055G,2026-07-20T00:20:34.560960,15.34396812,.00013141,53.1589,61.5364,82.4339,277.6813,0,U,68268,999,2023,.39415364E-3,.12963E-3,0
